{
  "type": "FeatureCollection",
  "features": [
    {
      "type": "Feature",
      "properties": {
        "norad_id": 36036,
        "name": "SMOS",
        "group": "resource",
        "lat": -42.17354397741949,
        "lon": -17.207220759649484,
        "alt_km": 766.5369223010939,
        "timestamp": "2025-12-11T10:53:15.541608+00:00",
        "meta_object_name": "SMOS",
        "meta_object_id": "2009-059A",
        "meta_epoch": "2025-12-11T03:11:05.949600",
        "meta_mean_motion": 14.39738982,
        "meta_eccentricity": 0.0001099,
        "meta_inclination": 98.438,
        "meta_ra_of_asc_node": 170.2049,
        "meta_arg_of_pericenter": 84.7194,
        "meta_mean_anomaly": 275.4119,
        "meta_ephemeris_type": 0,
        "meta_classification_type": "U",
        "meta_norad_cat_id": 36036,
        "meta_element_set_no": 999,
        "meta_rev_at_epoch": 84639,
        "meta_bstar": 0.00020223,
        "meta_mean_motion_dot": 5.9e-06,
        "meta_mean_motion_ddot": 0,
        "tle_line1": "1 36036U 09059A   25345.13270775  .00000590  00000+0  20223-3 0  9997",
        "tle_line2": "2 36036  98.4380 170.2049 0001099  84.7194 275.4119 14.39738982846390"
      },
      "geometry": {
        "type": "Point",
        "coordinates": [
          -17.207220759649484,
          -42.17354397741949
        ]
      }
    },
    {
      "type": "Feature",
      "properties": {
        "norad_id": 36110,
        "name": "YAOGAN-7",
        "group": "resource",
        "lat": -51.13901361196666,
        "lon": 37.12484781243951,
        "alt_km": 633.7553596132138,
        "timestamp": "2025-12-11T10:53:15.541620+00:00",
        "meta_object_name": "YAOGAN-7",
        "meta_object_id": "2009-069A",
        "meta_epoch": "2025-12-11T04:57:52.284960",
        "meta_mean_motion": 14.77728748,
        "meta_eccentricity": 0.0023403,
        "meta_inclination": 98.0302,
        "meta_ra_of_asc_node": 226.9694,
        "meta_arg_of_pericenter": 286.5158,
        "meta_mean_anomaly": 73.3481,
        "meta_ephemeris_type": 0,
        "meta_classification_type": "U",
        "meta_norad_cat_id": 36110,
        "meta_element_set_no": 999,
        "meta_rev_at_epoch": 86186,
        "meta_bstar": 0.00015208,
        "meta_mean_motion_dot": 1.041e-05,
        "meta_mean_motion_ddot": 0,
        "tle_line1": "1 36110U 09069A   25345.20685515  .00001041  00000+0  15208-3 0  9990",
        "tle_line2": "2 36110  98.0302 226.9694 0023403 286.5158  73.3481 14.77728748861860"
      },
      "geometry": {
        "type": "Point",
        "coordinates": [
          37.12484781243951,
          -51.13901361196666
        ]
      }
    },
    {
      "type": "Feature",
      "properties": {
        "norad_id": 36605,
        "name": "TANDEM-X",
        "group": "resource",
        "lat": -72.19648796484057,
        "lon": 14.882449068342408,
        "alt_km": 516.8604080876958,
        "timestamp": "2025-12-11T10:53:15.541631+00:00",
        "meta_object_name": "TANDEM-X",
        "meta_object_id": "2010-030A",
        "meta_epoch": "2025-12-10T13:04:49.497312",
        "meta_mean_motion": 15.19152954,
        "meta_eccentricity": 0.0001855,
        "meta_inclination": 97.4451,
        "meta_ra_of_asc_node": 349.9572,
        "meta_arg_of_pericenter": 84.2987,
        "meta_mean_anomaly": 275.8459,
        "meta_ephemeris_type": 0,
        "meta_classification_type": "U",
        "meta_norad_cat_id": 36605,
        "meta_element_set_no": 999,
        "meta_rev_at_epoch": 85800,
        "meta_bstar": 0.00014449,
        "meta_mean_motion_dot": 2.969e-05,
        "meta_mean_motion_ddot": 0,
        "tle_line1": "1 36605U 10030A   25344.54501733  .00002969  00000+0  14449-3 0  9990",
        "tle_line2": "2 36605  97.4451 349.9572 0001855  84.2987 275.8459 15.19152954858001"
      },
      "geometry": {
        "type": "Point",
        "coordinates": [
          14.882449068342408,
          -72.19648796484057
        ]
      }
    },
    {
      "type": "Feature",
      "properties": {
        "norad_id": 36795,
        "name": "CARTOSAT-2B",
        "group": "resource",
        "lat": 24.658146841463,
        "lon": -141.87361439754795,
        "alt_km": 630.0083386179494,
        "timestamp": "2025-12-11T10:53:15.541641+00:00",
        "meta_object_name": "CARTOSAT-2B",
        "meta_object_id": "2010-035A",
        "meta_epoch": "2025-12-11T03:41:40.403040",
        "meta_mean_motion": 14.78784278,
        "meta_eccentricity": 0.0012907,
        "meta_inclination": 97.7851,
        "meta_ra_of_asc_node": 34.2356,
        "meta_arg_of_pericenter": 81.9983,
        "meta_mean_anomaly": 278.2692,
        "meta_ephemeris_type": 0,
        "meta_classification_type": "U",
        "meta_norad_cat_id": 36795,
        "meta_element_set_no": 999,
        "meta_rev_at_epoch": 83206,
        "meta_bstar": 0.00010375,
        "meta_mean_motion_dot": 7.13e-06,
        "meta_mean_motion_ddot": 0,
        "tle_line1": "1 36795U 10035A   25345.15393985  .00000713  00000+0  10375-3 0  9990",
        "tle_line2": "2 36795  97.7851  34.2356 0012907  81.9983 278.2692 14.78784278832060"
      },
      "geometry": {
        "type": "Point",
        "coordinates": [
          -141.87361439754795,
          24.658146841463
        ]
      }
    },
    {
      "type": "Feature",
      "properties": {
        "norad_id": 36834,
        "name": "YAOGAN-10",
        "group": "resource",
        "lat": -27.645540418129418,
        "lon": -178.89483689880126,
        "alt_km": 621.2633329313603,
        "timestamp": "2025-12-11T10:53:15.541653+00:00",
        "meta_object_name": "YAOGAN-10",
        "meta_object_id": "2010-038A",
        "meta_epoch": "2025-12-11T05:22:53.080608",
        "meta_mean_motion": 14.84597672,
        "meta_eccentricity": 0.0001492,
        "meta_inclination": 97.9142,
        "meta_ra_of_asc_node": 5.056,
        "meta_arg_of_pericenter": 83.7094,
        "meta_mean_anomaly": 338.6653,
        "meta_ephemeris_type": 0,
        "meta_classification_type": "U",
        "meta_norad_cat_id": 36834,
        "meta_element_set_no": 999,
        "meta_rev_at_epoch": 82931,
        "meta_bstar": 0.0004112,
        "meta_mean_motion_dot": 3.42e-05,
        "meta_mean_motion_ddot": 0,
        "tle_line1": "1 36834U 10038A   25345.22422547  .00003420  00000+0  41120-3 0  9992",
        "tle_line2": "2 36834  97.9142   5.0560 0001492  83.7094 338.6653 14.84597672829311"
      },
      "geometry": {
        "type": "Point",
        "coordinates": [
          -178.89483689880126,
          -27.645540418129418
        ]
      }
    },
    {
      "type": "Feature",
      "properties": {
        "norad_id": 37216,
        "name": "COSMO-SKYMED 4",
        "group": "resource",
        "lat": 37.21147065992625,
        "lon": -7.166466506582038,
        "alt_km": 619.4406262909406,
        "timestamp": "2025-12-11T10:53:15.541663+00:00",
        "meta_object_name": "COSMO-SKYMED 4",
        "meta_object_id": "2010-060A",
        "meta_epoch": "2025-12-11T03:46:01.233408",
        "meta_mean_motion": 14.82166299,
        "meta_eccentricity": 0.0001416,
        "meta_inclination": 97.8807,
        "meta_ra_of_asc_node": 166.5039,
        "meta_arg_of_pericenter": 77.3056,
        "meta_mean_anomaly": 282.8316,
        "meta_ephemeris_type": 0,
        "meta_classification_type": "U",
        "meta_norad_cat_id": 37216,
        "meta_element_set_no": 999,
        "meta_rev_at_epoch": 81671,
        "meta_bstar": 0.00012603,
        "meta_mean_motion_dot": 9.52e-06,
        "meta_mean_motion_ddot": 0,
        "tle_line1": "1 37216U 10060A   25345.15695872  .00000952  00000+0  12603-3 0  9998",
        "tle_line2": "2 37216  97.8807 166.5039 0001416  77.3056 282.8316 14.82166299816711"
      },
      "geometry": {
        "type": "Point",
        "coordinates": [
          -7.166466506582038,
          37.21147065992625
        ]
      }
    },
    {
      "type": "Feature",
      "properties": {
        "norad_id": 37387,
        "name": "RESOURCESAT-2",
        "group": "resource",
        "lat": 26.69257925460033,
        "lon": 44.55044155543706,
        "alt_km": 814.4579199542868,
        "timestamp": "2025-12-11T10:53:15.541675+00:00",
        "meta_object_name": "RESOURCESAT-2",
        "meta_object_id": "2011-015A",
        "meta_epoch": "2025-12-11T04:00:15.270624",
        "meta_mean_motion": 14.21596163,
        "meta_eccentricity": 0.0006509,
        "meta_inclination": 98.7879,
        "meta_ra_of_asc_node": 48.7257,
        "meta_arg_of_pericenter": 46.6746,
        "meta_mean_anomaly": 313.4973,
        "meta_ephemeris_type": 0,
        "meta_classification_type": "U",
        "meta_norad_cat_id": 37387,
        "meta_element_set_no": 999,
        "meta_rev_at_epoch": 75946,
        "meta_bstar": 0.00011846,
        "meta_mean_motion_dot": 2.15e-06,
        "meta_mean_motion_ddot": 0,
        "tle_line1": "1 37387U 11015A   25345.16684341  .00000215  00000+0  11846-3 0  9998",
        "tle_line2": "2 37387  98.7879  48.7257 0006509  46.6746 313.4973 14.21596163759463"
      },
      "geometry": {
        "type": "Point",
        "coordinates": [
          44.55044155543706,
          26.69257925460033
        ]
      }
    }
  ]
}